{"type": "FeatureCollection", "features": [ {"type": "Feature", "properties": {"norad_id": 66656, "name": "2025-274G", "group": "last-30-days", "lat": -11.593795421292416, "lon": 101.60770990836244, "alt_km": 587.4760843654649, "timestamp": "2025-12-22T04:03:37.886179+00:00", "meta": {"OBJECT_NAME": "2025-274G", "OBJECT_ID": "2025-274G", "EPOCH": "2025-12-21T17:32:54.746880", "MEAN_MOTION": 14.92320827, "ECCENTRICITY": 0.0012759, "INCLINATION": 97.7402, "RA_OF_ASC_NODE": 282.7763, "ARG_OF_PERICENTER": 223.881, "MEAN_ANOMALY": 136.1396, "EPHEMERIS_TYPE": 0, "CLASSIFICATION_TYPE": "U", "NORAD_CAT_ID": 66656, "ELEMENT_SET_NO": 999, "REV_AT_EPOCH": 374, "BSTAR": 0.00021575, "MEAN_MOTION_DOT": 2.151e-05, "MEAN_MOTION_DDOT": 0}, "tle": {"line1": "1 66656U 25274G   25355.73118920  .00002151  00000+0  21575-3 0  9991", "line2": "2 66656  97.7402 282.7763 0012759 223.8810 136.1396 14.92320827  3744"}}, "geometry": {"type": "Point", "coordinates": [101.60770990836244, -11.593795421292416]}}, {"type": "Feature", "properties": {"norad_id": 66657, "name": "SPIRONE", "group": "last-30-days", "lat": -27.827980656444563, "lon": 99.09601626430276, "alt_km": 589.5924013448384, "timestamp": "2025-12-22T04:03:37.886191+00:00", "meta": {"OBJECT_NAME": "SPIRONE", "OBJECT_ID": "2025-274H", "EPOCH": "2025-12-21T19:05:07.694016", "MEAN_MOTION": 14.92499903, "ECCENTRICITY": 0.0010872, "INCLINATION": 97.74, "RA_OF_ASC_NODE": 282.8455, "ARG_OF_PERICENTER": 241.7051, "MEAN_ANOMALY": 118.3071, "EPHEMERIS_TYPE": 0, "CLASSIFICATION_TYPE": "U", "NORAD_CAT_ID": 66657, "ELEMENT_SET_NO": 999, "REV_AT_EPOCH": 375, "BSTAR": 0.00020534, "MEAN_MOTION_DOT": 2.053e-05, "MEAN_MOTION_DDOT": 0}, "tle": {"line1": "1 66657U 25274H   25355.79522794  .00002053  00000+0  20534-3 0  9991", "line2": "2 66657  97.7400 282.8455 0010872 241.7051 118.3071 14.92499903  3757"}}, "geometry": {"type": "Point", "coordinates": [99.09601626430276, -27.827980656444563]}}, {"type": "Feature", "properties": {"norad_id": 66658, "name": "2025-274J", "group": "last-30-days", "lat": -43.42703852915012, "lon": 95.82319968390638, "alt_km": 588.8418040766428, "timestamp": "2025-12-22T04:03:37.886203+00:00", "meta": {"OBJECT_NAME": "2025-274J", "OBJECT_ID": "2025-274J", "EPOCH": "2025-12-21T19:00:56.741760", "MEAN_MOTION": 14.92669737, "ECCENTRICITY": 0.0011392, "INCLINATION": 97.74, "RA_OF_ASC_NODE": 282.8494, "ARG_OF_PERICENTER": 244.9965, "MEAN_ANOMALY": 115.0071, "EPHEMERIS_TYPE": 0, "CLASSIFICATION_TYPE": "U", "NORAD_CAT_ID": 66658, "ELEMENT_SET_NO": 999, "REV_AT_EPOCH": 375, "BSTAR": 0.00019012, "MEAN_MOTION_DOT": 1.905e-05, "MEAN_MOTION_DDOT": 0}, "tle": {"line1": "1 66658U 25274J   25355.79232340  .00001905  00000+0  19012-3 0  9991", "line2": "2 66658  97.7400 282.8494 0011392 244.9965 115.0071 14.92669737  3756"}}, "geometry": {"type": "Point", "coordinates": [95.82319968390638, -43.42703852915012]}}, {"type": "Feature", "properties": {"norad_id": 66659, "name": "JACK K", "group": "last-30-days", "lat": -59.985947530614396, "lon": 89.61011986872319, "alt_km": 587.8030135063, "timestamp": "2025-12-22T04:03:37.886213+00:00", "meta": {"OBJECT_NAME": "JACK K", "OBJECT_ID": "2025-274K", "EPOCH": "2025-12-21T17:19:56.314848", "MEAN_MOTION": 14.9285397, "ECCENTRICITY": 0.0012082, "INCLINATION": 97.7401, "RA_OF_ASC_NODE": 282.7883, "ARG_OF_PERICENTER": 246.938, "MEAN_ANOMALY": 113.0566, "EPHEMERIS_TYPE": 0, "CLASSIFICATION_TYPE": "U", "NORAD_CAT_ID": 66659, "ELEMENT_SET_NO": 999, "REV_AT_EPOCH": 374, "BSTAR": 0.00017376, "MEAN_MOTION_DOT": 1.745e-05, "MEAN_MOTION_DDOT": 0}, "tle": {"line1": "1 66659U 25274K   25355.72217957  .00001745  00000+0  17376-3 0  9995", "line2": "2 66659  97.7401 282.7883 0012082 246.9380 113.0566 14.92853970  3749"}}, "geometry": {"type": "Point", "coordinates": [89.61011986872319, -59.985947530614396]}}, {"type": "Feature", "properties": {"norad_id": 66660, "name": "K-HERO", "group": "last-30-days", "lat": -72.86555574963609, "lon": 77.05440826747821, "alt_km": 587.1318729210543, "timestamp": "2025-12-22T04:03:37.886223+00:00", "meta": {"OBJECT_NAME": "K-HERO", "OBJECT_ID": "2025-274L", "EPOCH": "2025-12-21T18:52:49.431936", "MEAN_MOTION": 14.93004773, "ECCENTRICITY": 0.0012696, "INCLINATION": 97.7407, "RA_OF_ASC_NODE": 282.8586, "ARG_OF_PERICENTER": 247.4732, "MEAN_ANOMALY": 112.5144, "EPHEMERIS_TYPE": 0, "CLASSIFICATION_TYPE": "U", "NORAD_CAT_ID": 66660, "ELEMENT_SET_NO": 999, "REV_AT_EPOCH": 375, "BSTAR": 0.00016091, "MEAN_MOTION_DOT": 1.618e-05, "MEAN_MOTION_DDOT": 0}, "tle": {"line1": "1 66660U 25274L   25355.78668324  .00001618  00000+0  16091-3 0  9993", "line2": "2 66660  97.7407 282.8586 0012696 247.4732 112.5144 14.93004773  3753"}}, "geometry": {"type": "Point", "coordinates": [77.05440826747821, -72.86555574963609]}}, {"type": "Feature", "properties": {"norad_id": 66661, "name": "SNUGLITE-III", "group": "last-30-days", "lat": -81.96765104035481, "lon": 28.691555529757267, "alt_km": 586.8289549827277, "timestamp": "2025-12-22T04:03:37.886233+00:00", "meta": {"OBJECT_NAME": "SNUGLITE-III", "OBJECT_ID": "2025-274M", "EPOCH": "2025-12-21T17:12:49.999968", "MEAN_MOTION": 14.93139357, "ECCENTRICITY": 0.0013285, "INCLINATION": 97.7404, "RA_OF_ASC_NODE": 282.7951, "ARG_OF_PERICENTER": 249.0325, "MEAN_ANOMALY": 110.9473, "EPHEMERIS_TYPE": 0, "CLASSIFICATION_TYPE": "U", "NORAD_CAT_ID": 66661, "ELEMENT_SET_NO": 999, "REV_AT_EPOCH": 374, "BSTAR": 0.00016291, "MEAN_MOTION_DOT": 1.645e-05, "MEAN_MOTION_DDOT": 0}, "tle": {"line1": "1 66661U 25274M   25355.71724537  .00001645  00000+0  16291-3 0  9998", "line2": "2 66661  97.7404 282.7951 0013285 249.0325 110.9473 14.93139357  3740"}}, "geometry": {"type": "Point", "coordinates": [28.691555529757267, -81.96765104035481]}}, {"type": "Feature", "properties": {"norad_id": 66662, "name": "2025-274N", "group": "last-30-days", "lat": -81.66876164383345, "lon": -8.502030305500142, "alt_km": 586.719665762942, "timestamp": "2025-12-22T04:03:37.886259+00:00", "meta": {"OBJECT_NAME": "2025-274N", "OBJECT_ID": "2025-274N", "EPOCH": "2025-12-21T18:47:57.458688", "MEAN_MOTION": 14.93194848, "ECCENTRICITY": 0.001373, "INCLINATION": 97.7407, "RA_OF_ASC_NODE": 282.8625, "ARG_OF_PERICENTER": 248.6058, "MEAN_ANOMALY": 111.3697, "EPHEMERIS_TYPE": 0, "CLASSIFICATION_TYPE": "U", "NORAD_CAT_ID": 66662, "ELEMENT_SET_NO": 999, "REV_AT_EPOCH": 375, "BSTAR": 0.00015255, "MEAN_MOTION_DOT": 1.539e-05, "MEAN_MOTION_DDOT": 0}, "tle": {"line1": "1 66662U 25274N   25355.78330392  .00001539  00000+0  15255-3 0  9999", "line2": "2 66662  97.7407 282.8625 0013730 248.6058 111.3697 14.93194848  3756"}}, "geometry": {"type": "Point", "coordinates": [-8.502030305500142, -81.66876164383345]}}, {"type": "Feature", "properties": {"norad_id": 66663, "name": "KSLV-II R/B", "group": "last-30-days", "lat": -60.465981095735046, "lon": -62.68072374755623, "alt_km": 541.2766379107416, "timestamp": "2025-12-22T04:03:37.886272+00:00", "meta": {"OBJECT_NAME": "KSLV-II R/B", "OBJECT_ID": "2025-274P", "EPOCH": "2025-12-21T18:42:36.614016", "MEAN_MOTION": 14.97505525, "ECCENTRICITY": 0.0059474, "INCLINATION": 97.7424, "RA_OF_ASC_NODE": 283.0385, "ARG_OF_PERICENTER": 287.9015, "MEAN_ANOMALY": 71.5728, "EPHEMERIS_TYPE": 0, "CLASSIFICATION_TYPE": "U", "NORAD_CAT_ID": 66663, "ELEMENT_SET_NO": 999, "REV_AT_EPOCH": 376, "BSTAR": 0.0015742, "MEAN_MOTION_DOT": 0.00019004, "MEAN_MOTION_DDOT": 0}, "tle": {"line1": "1 66663U 25274P   25355.77959044  .00019004  00000+0  15742-2 0  9996", "line2": "2 66663  97.7424 283.0385 0059474 287.9015  71.5728 14.97505525  3761"}}, "geometry": {"type": "Point", "coordinates": [-62.68072374755623, -60.465981095735046]}}, {"type": "Feature", "properties": {"norad_id": 66664, "name": "SOYUZ-MS 28", "group": "last-30-days", "lat": 48.31253108491873, "lon": -147.03928911491658, "alt_km": 413.05646209113, "timestamp": "2025-12-22T04:03:37.886282+00:00", "meta": {"OBJECT_NAME": "SOYUZ-MS 28", "OBJECT_ID": "2025-275A", "EPOCH": "2025-12-21T13:40:08.668128", "MEAN_MOTION": 15.49703708, "ECCENTRICITY": 0.0003166, "INCLINATION": 51.6324, "RA_OF_ASC_NODE": 98.7522, "ARG_OF_PERICENTER": 281.5679, "MEAN_ANOMALY": 78.4955, "EPHEMERIS_TYPE": 0, "CLASSIFICATION_TYPE": "U", "NORAD_CAT_ID": 66664, "ELEMENT_SET_NO": 999, "REV_AT_EPOCH": 381, "BSTAR": 0.00016837, "MEAN_MOTION_DOT": 9.066e-05, "MEAN_MOTION_DDOT": 0}, "tle": {"line1": "1 66664U 25275A   25355.56954477  .00009066  00000+0  16837-3 0  9994", "line2": "2 66664  51.6324  98.7522 0003166 281.5679  78.4955 15.49703708  3812"}}, "geometry": {"type": "Point", "coordinates": [-147.03928911491658, 48.31253108491873]}}, {"type": "Feature", "properties": {"norad_id": 66666, "name": "FORMOSAT-8A", "group": "last-30-days", "lat": 19.214264003809678, "lon": 65.28657930087182, "alt_km": 568.6912931571751, "timestamp": "2025-12-22T04:03:37.886293+00:00", "meta": {"OBJECT_NAME": "FORMOSAT-8A", "OBJECT_ID": "2025-276A", "EPOCH": "2025-12-21T16:46:11.354592", "MEAN_MOTION": 15.00338159, "ECCENTRICITY": 0.0003754, "INCLINATION": 97.658, "RA_OF_ASC_NODE": 67.5112, "ARG_OF_PERICENTER": 196.6595, "MEAN_ANOMALY": 163.4506, "EPHEMERIS_TYPE": 0, "CLASSIFICATION_TYPE": "U", "NORAD_CAT_ID": 66666, "ELEMENT_SET_NO": 999, "REV_AT_EPOCH": 343, "BSTAR": 0.00035366, "MEAN_MOTION_DOT": 4.379e-05, "MEAN_MOTION_DDOT": 0}, "tle": {"line1": "1 66666U 25276A   25355.69874253  .00004379  00000+0  35366-3 0  9994", "line2": "2 66666  97.6580  67.5112 0003754 196.6595 163.4506 15.00338159  3439"}}, "geometry": {"type": "Point", "coordinates": [65.28657930087182, 19.214264003809678]}}]}